{
  "norad_id": 67640,
  "name": "STARLINK-36570",
  "history": [
    {
      "epoch": "2026-03-28T06:00:08.470656Z",
      "apogee_km": 481.54532925907733,
      "perigee_km": 479.4328724200186,
      "latitude_deg": 4.3212613591627215e-06,
      "longitude_deg": 119.11986665810298,
      "height_km": 480.19053034792177,
      "semi_major_axis_km": 6858.626100839548,
      "eccentricity": 0.000154,
      "inclination_deg": 43.0035,
      "raan_deg": 34.8284,
      "arg_perigee_deg": 274.1099,
      "mean_anomaly_deg": 85.9577,
      "mean_motion_rev_day": 15.28435338
    },
    {
      "epoch": "2026-03-29T02:23:29.770368Z",
      "apogee_km": 481.1708392309074,
      "perigee_km": 479.70584753756066,
      "latitude_deg": 1.3927080417076705e-05,
      "longitude_deg": 167.63717111995177,
      "height_km": 480.25871808837474,
      "semi_major_axis_km": 6858.575343384234,
      "eccentricity": 0.0001068,
      "inclination_deg": 43.0021,
      "raan_deg": 30.0218,
      "arg_perigee_deg": 266.5706,
      "mean_anomaly_deg": 93.5024,
      "mean_motion_rev_day": 15.28452305
    },
    {
      "epoch": "2026-03-30T05:03:16.626240Z",
      "apogee_km": 481.663677441019,
      "perigee_km": 479.2974543807795,
      "latitude_deg": -2.0759387676085043e-05,
      "longitude_deg": 120.31679089582423,
      "height_km": 480.2569881674784,
      "semi_major_axis_km": 6858.617565910899,
      "eccentricity": 0.0001725,
      "inclination_deg": 43.0037,
      "raan_deg": 23.7417,
      "arg_perigee_deg": 270.0422,
      "mean_anomaly_deg": 90.0232,
      "mean_motion_rev_day": 15.28438191
    },
    {
      "epoch": "2026-03-30T05:03:16.627104Z",
      "apogee_km": 481.66347168249285,
      "perigee_km": 479.2976601393075,
      "latitude_deg": -2.311814897949984e-05,
      "longitude_deg": 120.3167847708114,
      "height_km": 480.2569883189659,
      "semi_major_axis_km": 6858.617565910899,
      "eccentricity": 0.00017247,
      "inclination_deg": 43.0037,
      "raan_deg": 23.7417,
      "arg_perigee_deg": 270.0422,
      "mean_anomaly_deg": 90.0232,
      "mean_motion_rev_day": 15.28438191
    },
    {
      "epoch": "2026-03-30T20:44:20.257440Z",
      "apogee_km": 481.39603657464704,
      "perigee_km": 479.62979704807094,
      "latitude_deg": 1.5910967658994374e-05,
      "longitude_deg": -119.29003228467215,
      "height_km": 480.6424323142835,
      "semi_major_axis_km": 6858.649916811359,
      "eccentricity": 0.00012876,
      "inclination_deg": 43.0034,
      "raan_deg": 20.0441,
      "arg_perigee_deg": 246.4567,
      "mean_anomaly_deg": 113.615,
      "mean_motion_rev_day": 15.28427377
    }
  ]
}